#cP2018  1 10  0  0  0.00000000      96 ORBIT IGS14 HLM  IGS
## 1983 259200.00000000   900.00000000 58128 0.0000000000000
+   32   G01G02G03G04G05G06G07G08G09G10G11G12G13G14G15G16G17
+        G18G19G20G21G22G23G24G25G26G27G28G29G30G31G32  0  0
+          0  0  0  0  0  0  0  0  0  0  0  0  0  0  0  0  0
+          0  0  0  0  0  0  0  0  0  0  0  0  0  0  0  0  0
+          0  0  0  0  0  0  0  0  0  0  0  0  0  0  0  0  0
++         2  2  2  0  2  2  2  2  2  2  2  2  2  2  2  2  2
++         3  2  2  2  3  2  2  2  2  2  2  2  2  2  2  0  0
++         0  0  0  0  0  0  0  0  0  0  0  0  0  0  0  0  0
++         0  0  0  0  0  0  0  0  0  0  0  0  0  0  0  0  0
++         0  0  0  0  0  0  0  0  0  0  0  0  0  0  0  0  0
%c G  cc GPS ccc cccc cccc cccc cccc ccccc ccccc ccccc ccccc
%c cc cc ccc ccc cccc cccc cccc cccc ccccc ccccc ccccc ccccc
%f  1.2500000  1.025000000  0.00000000000  0.000000000000000
%f  0.0000000  0.000000000  0.00000000000  0.000000000000000
%i    0    0    0    0      0      0      0      0         0
%i    0    0    0    0      0      0      0      0         0
/* FINAL ORBIT COMBINATION FROM WEIGHTED AVERAGE OF:        
/* cod emr esa gfz grg jpl mit ngs sio                      
/* REFERENCED TO IGS TIME (IGST) AND TO WEIGHTED MEAN POLE: 
/* PCV:IGS14_1984 OL/AL:FES2004  NONE     Y  ORB:CMB CLK:CMB
*  2018  1 10  2 15  0.00000000
PG01  12739.821417 -22314.958345  -6238.842596    -22.807075  5  6  3  89       
PG02 -19675.124279  10052.797595 -13986.846451    232.402245  8 10  8  65       
PG03   7974.874533 -13791.643910 -21263.707453    -12.622917  7  7  2  97       
PG04  24553.204210   8730.666196  -6096.098898 999999.999999
PG05 -24747.214852   3294.600186   9256.607218    -17.392996 10 10  5 109       
PG06 -16534.425847  -2040.493049 -20657.264970    414.627125  7  9  7  91       
PG07   -539.709685 -19247.523664  18300.643137    253.745647  7  8  6  95       
PG08   8857.401103 -15038.715920  20042.027145    -87.146854  6  7  7 108       
PG09  -7728.519551 -25232.151755  -3009.788331    491.632894  4  7  5  29       
PG10  21795.399038  10957.601284  10707.628994    143.625923  6  5  6  74       
PG11   8824.571387 -24950.295024   2410.184197   -733.535822  6  6  6 104       
PG12 -11090.302045  11835.721323 -21158.702019    356.237272  8  9  8  88       
PG13 -13683.925328   6620.646795  21661.670999    -95.268959  5  5  6 113       
PG14  16242.885249  10575.149589 -17956.695625    -92.136082  7  7  8  90       
PG15  -7608.991812  16751.977143  18816.802412   -357.392218  7  7  4 104       
PG16  24699.471902   -905.374705  10132.354426     34.278498 10  9  7 101       
PG17 -14398.085806 -18899.150755 -11633.217499   -132.013570  5  8  5 100       
PG18  11958.585386  15384.527445  18717.578934    633.567129  7  5  8  95       
PG19 -15829.467148 -11549.745866 -18109.378466   -464.685492  5  7  4 104       
PG20 -10136.839283  14312.246146  19787.643414    497.877563  6  6  3  95       
PG21   3868.719071  18522.033821  19422.367010   -443.463955  6  5  4  79       
PG22  15654.782705 -11799.170370 -17690.826913   -251.654694  7  7 10  95       
PG23   1208.063472 -22696.601328 -13122.342117   -219.093905  8  5  6 100       
PG24 -14000.613580  22215.795510  -2891.841390    -44.572840  5  6  6  91       
PG25   3654.783311  15369.658455 -21547.817364   -519.828332  4  6  6 103       
PG26  26294.116879   4150.532565   -609.755060   -293.176470  6  6  5 106       
PG27  15126.765710  -1634.975644  21735.190797    361.650057  7  7  6 113       
PG28 -18117.211657 -14013.053151  14048.847678    678.463822  5  4  7 108       
PG29   3170.520864  25434.374704  -7006.279601    513.317677  8  8  5  78       
PG30  -8616.855679 -13349.113596  21271.046500    113.838484  3  6  7 106       
PG31  17388.039211   1170.007279 -20109.301240    149.676560  6  8  8  88       
PG32  16115.281245  17105.629941 -12417.902709   -532.598042  6  7  6 102       
*  2018  1 10  2 30  0.00000000
PG01  13261.709536 -22597.010398  -3419.305441    -22.808726  5  7  3  96       
PG02 -18852.649186   8415.937337 -16005.592899    232.393435  7  9  8  77       
PG03  10331.866206 -13422.478943 -20465.471199    -12.616925  7  7  1  98       
PG04  23721.754201   8769.190107  -8805.572395 999999.999999
PG05 -25633.585371   2940.168620   6638.646284    -17.392185 10 10  5 108       
PG06 -15134.220077  -4004.827800 -21426.495386    414.627383  6  9  7  93       
PG07    817.564663 -20693.484094  16575.132648    253.740641  7  8  6  94       
PG08   9869.902597 -12928.480550  21031.070599    -87.147636  7  7  7 104       
PG09  -7278.023350 -24883.086202  -5790.115312    491.635883  4  8  5  81       
PG10  20427.493661  10996.829343  13090.872414    143.631097  6  5  5  82       
PG11   9102.235648 -24377.814219   5095.834878   -733.536741  6  7  6 100       
PG12 -13359.898710  11337.565419 -20066.399086    356.235607  7  9  8  98       
PG13 -14392.353552   4212.360744  21802.449011    -95.269075  5  5  6 115       
PG14  16729.917258  12519.290251 -16216.089666    -92.136446  7  8  7  97       
PG15  -8798.215356  14802.821622  19924.260931   -357.392043  8  7  4  96       
PG16  25662.576906   -567.524685   7485.313541     34.277643  9  9  6  90       
PG17 -14658.955663 -20113.665459  -9087.215814   -132.010744  5  7  6 119       
PG18   9848.019975  15370.906837  19942.631770    633.567080  6  6  8 105       
PG19 -16277.951695 -13423.964085 -16282.079515   -464.683306  4  7  5 111       
PG20 -12372.118532  14118.277821  18626.696441    497.878456  6  6  2  99       
PG21   2616.374349  20088.538421  17953.809396   -443.460721  5  4  4  85       
PG22  17615.339901 -11441.825264 -16028.067464   -251.666298  6  7 10 105       
PG23   2119.739093 -21258.345832 -15243.701766   -219.093984  8  5  7  89       
PG24 -14359.720837  22159.733710    -61.833677    -44.573483  5  6  6  82       
PG25   1220.975470  15082.562398 -22004.135163   -519.833843  5  6  5 102       
PG26  26036.706466   4379.670662  -3438.857125   -293.163929  5  6  5 111       
PG27  16059.451159    638.722260  21132.151339    361.652065  6  6  6 109       
PG28 -16500.940952 -13792.046032  16195.857939    678.466740  6  3  7 102       
PG29   2686.740381  24596.324661  -9688.991804    513.313043  8  8  5  71       
PG30  -7008.482582 -15138.080644  20641.658287    113.835645  3  6  7 104       
PG31  15958.977789   3042.158829 -21036.448738    149.674263  6  8  7  96       
PG32  16417.439100  18372.792004  -9983.036294   -532.598632  6  7  6 106       
*  2018  1 10  2 45  0.00000000
PG01  13587.406606 -22636.507316   -540.014683    -22.810405  5  7  3  93       
PG02 -17999.952346   6552.823229 -17734.877926    232.383902  7  9  8  85       
PG03  12595.376870 -13183.639050 -19315.308796    -12.610954  7  7  2 106       
PG04  22599.821387   8826.401038 -11367.193632 999999.999999
PG05 -26235.188686   2645.968576   3907.458337    -17.391061 10 10  5  99       
PG06 -13804.279419  -6096.645286 -21826.055111    414.627608  6  9  7  87       
PG07   1980.900957 -22036.192167  14563.303954    253.735852  7  8  6  87       
PG08  11034.266825 -10794.867900  21659.326759    -87.148732  7  7  7 100       
PG09  -6671.026772 -24281.975273  -8470.835088    491.638873  4  8  4  73       
PG10  18807.383941  11091.914810  15250.783070    143.636282  5  4  5  83       
PG11   9355.195042 -23522.912977   7693.289950   -733.537416  6  7  7  91       
PG12 -15514.723990  10985.400804 -18631.898569    356.233974  8 10  8  82       
PG13 -15225.521063   1850.137006  21563.898728    -95.269194  6  5  6 120       
PG14  17237.485780  14233.535311 -14192.901465    -92.137016  7  7  7  99       
PG15 -10128.143317  12821.275344  20680.019267   -357.391875  8  7  4 101       
PG16  26340.402122   -330.362410   4711.966580     34.277245  9  9  5  87       
PG17 -14868.780479 -21034.674162  -6383.635652   -132.008037  6  7  6 102       
PG18   7623.707071  15457.216054  20842.285997    633.566859  5  6  8  96       
PG19 -16749.986536 -15066.465064 -14177.452355   -464.681146  3  7  5 117       
PG20 -14463.693580  14022.999314  17141.032937    497.879301  6  7  2 100       
PG21   1532.924251  21567.959032  16193.372494   -443.456701  5  3  4  77       
PG22  19384.189800 -11178.556814 -14085.127970   -251.678099  6  7 10 106       
PG23   3202.062218 -19662.971125 -17093.182141   -219.093577  8  5  7  81       
PG24 -14553.034288  21846.711416   2769.245469    -44.574121  5  6  5  83       
PG25  -1257.314357  14927.555589 -22087.946048   -519.839374  4  6  5 110       
PG26  25475.878039   4606.506938  -6209.201795   -293.151399  4  6  6 113       
PG27  17074.147848   2776.181178  20165.055647    361.654112  6  6  5  99       
PG28 -14657.396113 -13629.581851  18075.248151    678.469933  6  3  6 102       
PG29   2042.133603  23514.981060 -12205.172626    513.308192  7  9  5  83       
PG30  -5544.771954 -16932.674139  19656.272143    113.832821  4  6  7 103       
PG31  14579.889296   5059.635511 -21602.406290    149.671889  6  8  7  96       
PG32  16656.778845  19367.693492  -7376.827168   -532.599270  5  6  6 109       
EOF
